{
  "type": "FeatureCollection",
  "features": [
    {
      "type": "Feature",
      "properties": {
        "norad_id": 38208,
        "name": "COSMOS 2251 DEB",
        "group": "cosmos-2251-debris",
        "lat": 23.440987991455234,
        "lon": 70.25042787575713,
        "alt_km": 615.971930652383,
        "timestamp": "2025-12-20T16:47:36.682777+00:00",
        "meta_object_name": "COSMOS 2251 DEB",
        "meta_object_id": "1993-036BSY",
        "meta_epoch": "2025-12-16T00:13:39.722592",
        "meta_mean_motion": 14.84023361,
        "meta_eccentricity": 0.00017369,
        "meta_inclination": 74.0064,
        "meta_ra_of_asc_node": 72.4172,
        "meta_arg_of_pericenter": 150.2716,
        "meta_mean_anomaly": 26.1687,
        "meta_ephemeris_type": 0,
        "meta_classification_type": "U",
        "meta_norad_cat_id": 38208,
        "meta_element_set_no": 999,
        "meta_rev_at_epoch": 71207,
        "meta_bstar": 0.0016436813,
        "meta_mean_motion_dot": 0.00013687,
        "meta_mean_motion_ddot": 0,
        "tle_line1": "1 38208U 93036BSY 25350.00948753  .00013687  00000+0  16437-2 0  9990",
        "tle_line2": "2 38208  74.0064  72.4172 0001736 150.2716  26.1687 14.84023361712075"
      },
      "geometry": {
        "type": "Point",
        "coordinates": [
          70.25042787575713,
          23.440987991455234
        ]
      }
    },
    {
      "type": "Feature",
      "properties": {
        "norad_id": 38212,
        "name": "COSMOS 2251 DEB",
        "group": "cosmos-2251-debris",
        "lat": 24.567968705312698,
        "lon": -126.51961602012699,
        "alt_km": 578.6638836778247,
        "timestamp": "2025-12-20T16:47:36.682786+00:00",
        "meta_object_name": "COSMOS 2251 DEB",
        "meta_object_id": "1993-036BTC",
        "meta_epoch": "2025-12-19T04:21:29.490912",
        "meta_mean_motion": 14.77722254,
        "meta_eccentricity": 0.0092064,
        "meta_inclination": 74.0528,
        "meta_ra_of_asc_node": 63.9673,
        "meta_arg_of_pericenter": 129.0689,
        "meta_mean_anomaly": 231.8724,
        "meta_ephemeris_type": 0,
        "meta_classification_type": "U",
        "meta_norad_cat_id": 38212,
        "meta_element_set_no": 999,
        "meta_rev_at_epoch": 81405,
        "meta_bstar": 0.00027193732,
        "meta_mean_motion_dot": 2.056e-05,
        "meta_mean_motion_ddot": 0,
        "tle_line1": "1 38212U 93036BTC 25353.18159133  .00002056  00000+0  27194-3 0  9994",
        "tle_line2": "2 38212  74.0528  63.9673 0092064 129.0689 231.8724 14.77722254814050"
      },
      "geometry": {
        "type": "Point",
        "coordinates": [
          -126.51961602012699,
          24.567968705312698
        ]
      }
    },
    {
      "type": "Feature",
      "properties": {
        "norad_id": 38220,
        "name": "COSMOS 2251 DEB",
        "group": "cosmos-2251-debris",
        "lat": 23.84396634326433,
        "lon": 59.54699259883501,
        "alt_km": 582.872694204153,
        "timestamp": "2025-12-20T16:47:36.682797+00:00",
        "meta_object_name": "COSMOS 2251 DEB",
        "meta_object_id": "1993-036BTL",
        "meta_epoch": "2025-12-19T21:23:19.109760",
        "meta_mean_motion": 14.93308303,
        "meta_eccentricity": 0.0005462,
        "meta_inclination": 74.0148,
        "meta_ra_of_asc_node": 53.8959,
        "meta_arg_of_pericenter": 25.3651,
        "meta_mean_anomaly": 334.78,
        "meta_ephemeris_type": 0,
        "meta_classification_type": "U",
        "meta_norad_cat_id": 38220,
        "meta_element_set_no": 999,
        "meta_rev_at_epoch": 71477,
        "meta_bstar": 0.0017121,
        "meta_mean_motion_dot": 0.00017953,
        "meta_mean_motion_ddot": 0,
        "tle_line1": "1 38220U 93036BTL 25353.89119340  .00017953  00000+0  17121-2 0  9997",
        "tle_line2": "2 38220  74.0148  53.8959 0005462  25.3651 334.7800 14.93308303714774"
      },
      "geometry": {
        "type": "Point",
        "coordinates": [
          59.54699259883501,
          23.84396634326433
        ]
      }
    },
    {
      "type": "Feature",
      "properties": {
        "norad_id": 38479,
        "name": "COSMOS 2251 DEB",
        "group": "cosmos-2251-debris",
        "lat": 24.830464174408025,
        "lon": 177.2155311920313,
        "alt_km": 782.0339638035039,
        "timestamp": "2025-12-20T16:47:36.682807+00:00",
        "meta_object_name": "COSMOS 2251 DEB",
        "meta_object_id": "1993-036BTP",
        "meta_epoch": "2025-12-13T19:29:32.997408",
        "meta_mean_motion": 14.3831318,
        "meta_eccentricity": 0.0084157,
        "meta_inclination": 74.007,
        "meta_ra_of_asc_node": 182.3013,
        "meta_arg_of_pericenter": 291.0961,
        "meta_mean_anomaly": 83.9532,
        "meta_ephemeris_type": 0,
        "meta_classification_type": "U",
        "meta_norad_cat_id": 38479,
        "meta_element_set_no": 999,
        "meta_rev_at_epoch": 64703,
        "meta_bstar": 0.0021939338,
        "meta_mean_motion_dot": 6.938e-05,
        "meta_mean_motion_ddot": 0,
        "tle_line1": "1 38479U 93036BTP 25347.81218747  .00006938  00000+0  21939-2 0  9992",
        "tle_line2": "2 38479  74.0070 182.3013 0084157 291.0961  83.9532 14.38313180647034"
      },
      "geometry": {
        "type": "Point",
        "coordinates": [
          177.2155311920313,
          24.830464174408025
        ]
      }
    },
    {
      "type": "Feature",
      "properties": {
        "norad_id": 38481,
        "name": "COSMOS 2251 DEB",
        "group": "cosmos-2251-debris",
        "lat": 53.55478987239859,
        "lon": 150.82995124815972,
        "alt_km": 1074.3684939113245,
        "timestamp": "2025-12-20T16:47:36.682816+00:00",
        "meta_object_name": "COSMOS 2251 DEB",
        "meta_object_id": "1993-036BTR",
        "meta_epoch": "2025-12-17T17:37:11.726400",
        "meta_mean_motion": 13.94852214,
        "meta_eccentricity": 0.02348213,
        "meta_inclination": 73.9324,
        "meta_ra_of_asc_node": 358.9239,
        "meta_arg_of_pericenter": 298.2644,
        "meta_mean_anomaly": 59.4964,
        "meta_ephemeris_type": 0,
        "meta_classification_type": "U",
        "meta_norad_cat_id": 38481,
        "meta_element_set_no": 999,
        "meta_rev_at_epoch": 59130,
        "meta_bstar": 0.0012605173,
        "meta_mean_motion_dot": 2.103e-05,
        "meta_mean_motion_ddot": 0,
        "tle_line1": "1 38481U 93036BTR 25351.73416350  .00002103  00000+0  12605-2 0  9991",
        "tle_line2": "2 38481  73.9324 358.9239 0234821 298.2644  59.4964 13.94852214591302"
      },
      "geometry": {
        "type": "Point",
        "coordinates": [
          150.82995124815972,
          53.55478987239859
        ]
      }
    },
    {
      "type": "Feature",
      "properties": {
        "norad_id": 38483,
        "name": "COSMOS 2251 DEB",
        "group": "cosmos-2251-debris",
        "lat": 57.53512247563189,
        "lon": 151.1947286339909,
        "alt_km": 714.1197595420454,
        "timestamp": "2025-12-20T16:47:36.682826+00:00",
        "meta_object_name": "COSMOS 2251 DEB",
        "meta_object_id": "1993-036BTT",
        "meta_epoch": "2025-12-12T08:16:48.530496",
        "meta_mean_motion": 14.28787654,
        "meta_eccentricity": 0.01107994,
        "meta_inclination": 74.262,
        "meta_ra_of_asc_node": 12.4521,
        "meta_arg_of_pericenter": 118.0167,
        "meta_mean_anomaly": 243.2246,
        "meta_ephemeris_type": 0,
        "meta_classification_type": "U",
        "meta_norad_cat_id": 38483,
        "meta_element_set_no": 999,
        "meta_rev_at_epoch": 63472,
        "meta_bstar": 0.0012977102,
        "meta_mean_motion_dot": 3.471e-05,
        "meta_mean_motion_ddot": 0,
        "tle_line1": "1 38483U 93036BTT 25346.34500614  .00003471  00000+0  12977-2 0  9992",
        "tle_line2": "2 38483  74.2620  12.4521 0110799 118.0167 243.2246 14.28787654634722"
      },
      "geometry": {
        "type": "Point",
        "coordinates": [
          151.1947286339909,
          57.53512247563189
        ]
      }
    },
    {
      "type": "Feature",
      "properties": {
        "norad_id": 38486,
        "name": "COSMOS 2251 DEB",
        "group": "cosmos-2251-debris",
        "lat": -60.951890649642486,
        "lon": 158.01114710319132,
        "alt_km": 639.9550620030786,
        "timestamp": "2025-12-20T16:47:36.682837+00:00",
        "meta_object_name": "COSMOS 2251 DEB",
        "meta_object_id": "1993-036BTW",
        "meta_epoch": "2025-12-19T21:49:44.280192",
        "meta_mean_motion": 14.73429029,
        "meta_eccentricity": 0.0030516,
        "meta_inclination": 73.9403,
        "meta_ra_of_asc_node": 190.8021,
        "meta_arg_of_pericenter": 334.2314,
        "meta_mean_anomaly": 90.8371,
        "meta_ephemeris_type": 0,
        "meta_classification_type": "U",
        "meta_norad_cat_id": 38486,
        "meta_element_set_no": 999,
        "meta_rev_at_epoch": 75540,
        "meta_bstar": 0.0013432,
        "meta_mean_motion_dot": 8.756e-05,
        "meta_mean_motion_ddot": 0,
        "tle_line1": "1 38486U 93036BTW 25353.90954028  .00008756  00000+0  13432-2 0  9995",
        "tle_line2": "2 38486  73.9403 190.8021 0030516 334.2314  90.8371 14.73429029755403"
      },
      "geometry": {
        "type": "Point",
        "coordinates": [
          158.01114710319132,
          -60.951890649642486
        ]
      }
    }
  ]
}